[{"OBJECT_NAME":"STARLINK-36144","OBJECT_ID":"2026-033J","EPOCH":"2026-03-24T06:00:02.000160","MEAN_MOTION":15.35689609,"ECCENTRICITY":0.00011319,"INCLINATION":42.9999,"RA_OF_ASC_NODE":185.1825,"ARG_OF_PERICENTER":283.7218,"MEAN_ANOMALY":186.9405,"EPHEMERIS_TYPE":0,"CLASSIFICATION_TYPE":"U","NORAD_CAT_ID":67829,"ELEMENT_SET_NO":999,"REV_AT_EPOCH":606,"BSTAR":-0.067247541,"MEAN_MOTION_DOT":-0.02143996,"MEAN_MOTION_DDOT":0},{"OBJECT_NAME":"STARLINK-36611","OBJECT_ID":"2026-033K","EPOCH":"2026-03-24T06:00:02.000160","MEAN_MOTION":15.28346671,"ECCENTRICITY":0.00018228,"INCLINATION":42.9995,"RA_OF_ASC_NODE":185.2992,"ARG_OF_PERICENTER":260.7938,"MEAN_ANOMALY":160.4085,"EPHEMERIS_TYPE":0,"CLASSIFICATION_TYPE":"U","NORAD_CAT_ID":67830,"ELEMENT_SET_NO":999,"REV_AT_EPOCH":606,"BSTAR":0.0018659238,"MEAN_MOTION_DOT":0.00052676,"MEAN_MOTION_DDOT":0},{"OBJECT_NAME":"STARLINK-36661","OBJECT_ID":"2026-033L","EPOCH":"2026-03-24T06:00:02.000160","MEAN_MOTION":15.36873986,"ECCENTRICITY":0.00015896,"INCLINATION":42.9994,"RA_OF_ASC_NODE":185.3475,"ARG_OF_PERICENTER":263.3915,"MEAN_ANOMALY":141.4634,"EPHEMERIS_TYPE":0,"CLASSIFICATION_TYPE":"U","NORAD_CAT_ID":67831,"ELEMENT_SET_NO":999,"REV_AT_EPOCH":600,"BSTAR":-0.055835142,"MEAN_MOTION_DOT":-0.01847431,"MEAN_MOTION_DDOT":0},{"OBJECT_NAME":"STARLINK-36662","OBJECT_ID":"2026-033M","EPOCH":"2026-03-24T06:00:02.000160","MEAN_MOTION":15.68658229,"ECCENTRICITY":0.00013353,"INCLINATION":42.999,"RA_OF_ASC_NODE":181.5964,"ARG_OF_PERICENTER":277.18,"MEAN_ANOMALY":197.0621,"EPHEMERIS_TYPE":0,"CLASSIFICATION_TYPE":"U","NORAD_CAT_ID":67832,"ELEMENT_SET_NO":999,"REV_AT_EPOCH":586,"BSTAR":-0.012399328,"MEAN_MOTION_DOT":-0.01297757,"MEAN_MOTION_DDOT":0},{"OBJECT_NAME":"STARLINK-36659","OBJECT_ID":"2026-033N","EPOCH":"2026-03-24T06:00:02.000160","MEAN_MOTION":15.33540447,"ECCENTRICITY":0.00015469,"INCLINATION":42.9982,"RA_OF_ASC_NODE":184.7159,"ARG_OF_PERICENTER":284.2467,"MEAN_ANOMALY":15.7835,"EPHEMERIS_TYPE":0,"CLASSIFICATION_TYPE":"U","NORAD_CAT_ID":67833,"ELEMENT_SET_NO":999,"REV_AT_EPOCH":606,"BSTAR":-0.073025381,"MEAN_MOTION_DOT":-0.02170021,"MEAN_MOTION_DDOT":0},{"OBJECT_NAME":"STARLINK-36655","OBJECT_ID":"2026-033P","EPOCH":"2026-03-24T06:00:02.000160","MEAN_MOTION":15.45040457,"ECCENTRICITY":0.00010871,"INCLINATION":42.9996,"RA_OF_ASC_NODE":184.7919,"ARG_OF_PERICENTER":259.4237,"MEAN_ANOMALY":11.2502,"EPHEMERIS_TYPE":0,"CLASSIFICATION_TYPE":"U","NORAD_CAT_ID":67834,"ELEMENT_SET_NO":999,"REV_AT_EPOCH":606,"BSTAR":-0.042364482,"MEAN_MOTION_DOT":-0.01843705,"MEAN_MOTION_DDOT":0},{"OBJECT_NAME":"STARLINK-36657","OBJECT_ID":"2026-033Q","EPOCH":"2026-03-24T06:00:02.000160","MEAN_MOTION":15.37485263,"ECCENTRICITY":0.00010613,"INCLINATION":42.9996,"RA_OF_ASC_NODE":184.6534,"ARG_OF_PERICENTER":253.5818,"MEAN_ANOMALY":72.3721,"EPHEMERIS_TYPE":0,"CLASSIFICATION_TYPE":"U","NORAD_CAT_ID":67835,"ELEMENT_SET_NO":999,"REV_AT_EPOCH":606,"BSTAR":-0.051637211,"MEAN_MOTION_DOT":-0.01752793,"MEAN_MOTION_DDOT":0},{"OBJECT_NAME":"STARLINK-36650","OBJECT_ID":"2026-033R","EPOCH":"2026-03-24T06:00:02.000160","MEAN_MOTION":15.39556137,"ECCENTRICITY":0.0001252,"INCLINATION":42.999,"RA_OF_ASC_NODE":185.1563,"ARG_OF_PERICENTER":286.3256,"MEAN_ANOMALY":196.4377,"EPHEMERIS_TYPE":0,"CLASSIFICATION_TYPE":"U","NORAD_CAT_ID":67836,"ELEMENT_SET_NO":999,"REV_AT_EPOCH":606,"BSTAR":-0.05088075,"MEAN_MOTION_DOT":-0.01839653,"MEAN_MOTION_DDOT":0},{"OBJECT_NAME":"STARLINK-36649","OBJECT_ID":"2026-033S","EPOCH":"2026-03-24T06:00:02.000160","MEAN_MOTION":15.31250747,"ECCENTRICITY":0.00017873,"INCLINATION":43,"RA_OF_ASC_NODE":185.1735,"ARG_OF_PERICENTER":288.2111,"MEAN_ANOMALY":184.9146,"EPHEMERIS_TYPE":0,"CLASSIFICATION_TYPE":"U","NORAD_CAT_ID":67837,"ELEMENT_SET_NO":999,"REV_AT_EPOCH":606,"BSTAR":-0.11364827,"MEAN_MOTION_DOT":-0.0306771,"MEAN_MOTION_DDOT":0},{"OBJECT_NAME":"STARLINK-36654","OBJECT_ID":"2026-033T","EPOCH":"2026-03-24T06:00:02.000160","MEAN_MOTION":15.36841186,"ECCENTRICITY":0.00013556,"INCLINATION":42.9993,"RA_OF_ASC_NODE":185.0768,"ARG_OF_PERICENTER":286.6364,"MEAN_ANOMALY":227.232,"EPHEMERIS_TYPE":0,"CLASSIFICATION_TYPE":"U","NORAD_CAT_ID":67838,"ELEMENT_SET_NO":999,"REV_AT_EPOCH":606,"BSTAR":-0.055686159,"MEAN_MOTION_DOT":-0.01841119,"MEAN_MOTION_DDOT":0},{"OBJECT_NAME":"STARLINK-36652","OBJECT_ID":"2026-033U","EPOCH":"2026-03-24T06:00:02.000160","MEAN_MOTION":15.38861691,"ECCENTRICITY":0.00012679,"INCLINATION":43,"RA_OF_ASC_NODE":185.1269,"ARG_OF_PERICENTER":287.302,"MEAN_ANOMALY":206.7985,"EPHEMERIS_TYPE":0,"CLASSIFICATION_TYPE":"U","NORAD_CAT_ID":67839,"ELEMENT_SET_NO":999,"REV_AT_EPOCH":606,"BSTAR":-0.05193013,"MEAN_MOTION_DOT":-0.01835353,"MEAN_MOTION_DDOT":0},{"OBJECT_NAME":"STARLINK-36651","OBJECT_ID":"2026-033V","EPOCH":"2026-03-24T06:00:02.000160","MEAN_MOTION":15.39167555,"ECCENTRICITY":0.00014444,"INCLINATION":43.0003,"RA_OF_ASC_NODE":185.0064,"ARG_OF_PERICENTER":287.7576,"MEAN_ANOMALY":255.0605,"EPHEMERIS_TYPE":0,"CLASSIFICATION_TYPE":"U","NORAD_CAT_ID":67840,"ELEMENT_SET_NO":999,"REV_AT_EPOCH":606,"BSTAR":-0.051221588,"MEAN_MOTION_DOT":-0.0182947,"MEAN_MOTION_DDOT":0},{"OBJECT_NAME":"STARLINK-36656","OBJECT_ID":"2026-033W","EPOCH":"2026-03-24T06:00:02.000160","MEAN_MOTION":15.35217744,"ECCENTRICITY":0.00012231,"INCLINATION":42.9993,"RA_OF_ASC_NODE":185.0359,"ARG_OF_PERICENTER":267.4352,"MEAN_ANOMALY":262.0145,"EPHEMERIS_TYPE":0,"CLASSIFICATION_TYPE":"U","NORAD_CAT_ID":67841,"ELEMENT_SET_NO":999,"REV_AT_EPOCH":606,"BSTAR":-0.068273311,"MEAN_MOTION_DOT":-0.02143814,"MEAN_MOTION_DDOT":0},{"OBJECT_NAME":"STARLINK-36653","OBJECT_ID":"2026-033X","EPOCH":"2026-03-24T06:00:02.000160","MEAN_MOTION":15.41822291,"ECCENTRICITY":0.00010717,"INCLINATION":43.0001,"RA_OF_ASC_NODE":184.9227,"ARG_OF_PERICENTER":284.7563,"MEAN_ANOMALY":292.0609,"EPHEMERIS_TYPE":0,"CLASSIFICATION_TYPE":"U","NORAD_CAT_ID":67842,"ELEMENT_SET_NO":999,"REV_AT_EPOCH":606,"BSTAR":-0.047412758,"MEAN_MOTION_DOT":-0.01848331,"MEAN_MOTION_DDOT":0},{"OBJECT_NAME":"STARLINK-36589","OBJECT_ID":"2026-033Y","EPOCH":"2026-03-24T06:00:02.000160","MEAN_MOTION":15.42292787,"ECCENTRICITY":0.00010985,"INCLINATION":42.9992,"RA_OF_ASC_NODE":184.8334,"ARG_OF_PERICENTER":265.0473,"MEAN_ANOMALY":347.7993,"EPHEMERIS_TYPE":0,"CLASSIFICATION_TYPE":"U","NORAD_CAT_ID":67843,"ELEMENT_SET_NO":999,"REV_AT_EPOCH":606,"BSTAR":-0.047010508,"MEAN_MOTION_DOT":-0.0186066,"MEAN_MOTION_DDOT":0},{"OBJECT_NAME":"STARLINK-36598","OBJECT_ID":"2026-033Z","EPOCH":"2026-03-24T06:00:02.000160","MEAN_MOTION":15.34181593,"ECCENTRICITY":8.296e-5,"INCLINATION":42.9998,"RA_OF_ASC_NODE":185.2523,"ARG_OF_PERICENTER":273.1358,"MEAN_ANOMALY":168.6456,"EPHEMERIS_TYPE":0,"CLASSIFICATION_TYPE":"U","NORAD_CAT_ID":67844,"ELEMENT_SET_NO":999,"REV_AT_EPOCH":606,"BSTAR":-0.07153304,"MEAN_MOTION_DOT":-0.02169415,"MEAN_MOTION_DDOT":0}]
