STARLINK-36144          
1 67829U 26033J   26083.25002315 -.02143996  00000+0 -67248-1 0  9996
2 67829  42.9999 185.1825 0001131 283.7218 186.9405 15.35689609  6060
STARLINK-36611          
1 67830U 26033K   26083.25002315  .00052676  00000+0  18659-2 0  9991
2 67830  42.9995 185.2992 0001822 260.7938 160.4085 15.28346671  6067
STARLINK-36661          
1 67831U 26033L   26083.25002315 -.01847431  00000+0 -55835-1 0  9992
2 67831  42.9994 185.3475 0001589 263.3915 141.4634 15.36873986  6004
STARLINK-36662          
1 67832U 26033M   26083.25002315 -.01297757  00000+0 -12399-1 0  9991
2 67832  42.9990 181.5964 0001335 277.1800 197.0621 15.68658229  5869
STARLINK-36659          
1 67833U 26033N   26083.25002315 -.02170021  00000+0 -73025-1 0  9990
2 67833  42.9982 184.7159 0001546 284.2467  15.7835 15.33540447  6064
STARLINK-36655          
1 67834U 26033P   26083.25002315 -.01843705  00000+0 -42364-1 0  9998
2 67834  42.9996 184.7919 0001087 259.4237  11.2502 15.45040457  6064
STARLINK-36657          
1 67835U 26033Q   26083.25002315 -.01752793  00000+0 -51637-1 0  9998
2 67835  42.9996 184.6534 0001061 253.5818  72.3721 15.37485263  6069
STARLINK-36650          
1 67836U 26033R   26083.25002315 -.01839653  00000+0 -50881-1 0  9990
2 67836  42.9990 185.1563 0001252 286.3256 196.4377 15.39556137  6060
STARLINK-36649          
1 67837U 26033S   26083.25002315 -.03067710  00000+0 -11365+0 0  9992
2 67837  43.0000 185.1735 0001787 288.2111 184.9146 15.31250747  6066
STARLINK-36654          
1 67838U 26033T   26083.25002315 -.01841119  00000+0 -55686-1 0  9990
2 67838  42.9993 185.0768 0001355 286.6364 227.2320 15.36841186  6067
STARLINK-36652          
1 67839U 26033U   26083.25002315 -.01835353  00000+0 -51930-1 0  9992
2 67839  43.0000 185.1269 0001267 287.3020 206.7985 15.38861691  6069
STARLINK-36651          
1 67840U 26033V   26083.25002315 -.01829470  00000+0 -51222-1 0  9991
2 67840  43.0003 185.0064 0001444 287.7576 255.0605 15.39167555  6068
STARLINK-36656          
1 67841U 26033W   26083.25002315 -.02143814  00000+0 -68273-1 0  9998
2 67841  42.9993 185.0359 0001223 267.4352 262.0145 15.35217744  6063
STARLINK-36653          
1 67842U 26033X   26083.25002315 -.01848331  00000+0 -47413-1 0  9997
2 67842  43.0001 184.9227 0001071 284.7563 292.0609 15.41822291  6069
STARLINK-36589          
1 67843U 26033Y   26083.25002315 -.01860660  00000+0 -47011-1 0  9991
2 67843  42.9992 184.8334 0001098 265.0473 347.7993 15.42292787  6062
STARLINK-36598          
1 67844U 26033Z   26083.25002315 -.02169415  00000+0 -71533-1 0  9999
2 67844  42.9998 185.2523 0000829 273.1358 168.6456 15.34181593  6064
